GLOBALSTAR M063         
1 26081U 00008A   24350.79856880  .00000005  00000+0  12868-2 0  9991
2 26081  51.9938 234.5515 0004603 333.8989 111.9475 11.86166958135878
GLOBALSTAR M062         
1 26082U 00008B   24349.80209094 -.00000062  00000+0  26239-3 0  9993
2 26082  51.9851 277.9996 0007589  75.7377 328.4121 12.43453448473680
GLOBALSTAR M060         
1 26083U 00008C   24350.77161981  .00000077  00000+0  16750-2 0  9995
2 26083  51.9993 209.2081 0004454 102.3485 355.4973 12.17651541130192
GLOBALSTAR M064         
1 26084U 00008D   24350.04923151 -.00000052  00000+0  44355-3 0  9998
2 26084  52.0051 337.5223 0001732  60.2485 299.8520 11.88526612145317
GLOBALSTAR M065         
1 31571U 07020A   24349.78743345  .00000072  00000+0  98622-3 0  9997
2 31571  51.9905  67.5148 0009770 253.7899 260.5574 12.61984736810123
GLOBALSTAR M069         
1 31573U 07020C   24349.63892212 -.00000062  00000+0  24377-3 0  9997
2 31573  51.9970  27.3362 0000770 130.2588  22.0766 12.53306842811171
GLOBALSTAR M072         
1 31574U 07020D   24350.12563225 -.00000119  00000+0 -18450-3 0  9992
2 31574  52.0070 124.2172 0001157 106.8639  64.2447 12.34773426809634
GLOBALSTAR M071         
1 31576U 07020F   24350.43175600 -.00000047  00000+0  39856-3 0  9996
2 31576  52.0082  27.4643 0001533  54.9700 318.7492 12.31890566811245
